KUIPER-00112            
1 65150U 25171U   25340.66670139 -.00557238  00000+0 -71351-1 0  9994
2 65150  51.9370 206.9722 0009402 209.8856 181.4298 14.83319115  5436
KUIPER-00114            
1 65151U 25171V   25340.39980543  .00006736  00000+0  91070-3 0  9990
2 65151  51.8991 228.1347 0006683 150.7567 209.3770 14.79973453 18823
KUIPER-00115            
1 65152U 25171W   25340.40777442  .00002621  00000+0  37249-3 0  9992
2 65152  51.9007 220.5776 0010260 176.6490 183.4543 14.79961701 18938
KUIPER-00116            
1 65153U 25171X   25340.09857426  .00019804  00000+0  26143-2 0  9990
2 65153  51.8985 226.9914 0010683 139.2599 220.9165 14.79976952 18819
KUIPER-00118            
1 65154U 25171Y   25340.43348090 -.00009986  00000+0 -12840-2 0  9992
2 65154  51.9001 227.9639 0001832 126.8908 233.2223 14.79890766 18839
KUIPER-00119            
1 65155U 25171Z   25340.64957790  .00012925  00000+0  17176-2 0  9991
2 65155  51.8991 214.5909 0008576 171.8587 188.2516 14.80001811 19038
KUIPER-00120            
1 65762U 25217A   25340.61711139  .00009093  00000+0  89819-3 0  9994
2 65762  51.8949 103.9915 0016657 344.5311  15.5145 14.92474802 10966
KUIPER-00132            
1 65763U 25217B   25340.59184580  .00061174  00000+0  16517-2 0  9998
2 65763  51.8638  94.4785 0006487 353.9800   6.1107 15.37163083 11093
