<?xml version="1.0" encoding="UTF-8"?>
<ndm xmlns:xsi="http://www.w3.org/2001/XMLSchema-instance" xsi:noNamespaceSchemaLocation="https://sanaregistry.org/r/ndmxml_unqualified/ndmxml-2.0.0-master-2.0.xsd">
<omm id="CCSDS_OMM_VERS" version="2.0">
<header><CREATION_DATE/><ORIGINATOR/></header><body><segment><metadata><OBJECT_NAME>KUIPER-00112</OBJECT_NAME><OBJECT_ID>2025-171U</OBJECT_ID><CENTER_NAME>EARTH</CENTER_NAME><REF_FRAME>TEME</REF_FRAME><TIME_SYSTEM>UTC</TIME_SYSTEM><MEAN_ELEMENT_THEORY>SGP4</MEAN_ELEMENT_THEORY></metadata><data><meanElements><EPOCH>2025-12-06T16:00:03.000096</EPOCH><MEAN_MOTION>14.83319115</MEAN_MOTION><ECCENTRICITY>.00094029</ECCENTRICITY><INCLINATION>51.9370</INCLINATION><RA_OF_ASC_NODE>206.9722</RA_OF_ASC_NODE><ARG_OF_PERICENTER>209.8856</ARG_OF_PERICENTER><MEAN_ANOMALY>181.4298</MEAN_ANOMALY></meanElements><tleParameters><EPHEMERIS_TYPE>0</EPHEMERIS_TYPE><CLASSIFICATION_TYPE>U</CLASSIFICATION_TYPE><NORAD_CAT_ID>65150</NORAD_CAT_ID><ELEMENT_SET_NO>999</ELEMENT_SET_NO><REV_AT_EPOCH>543</REV_AT_EPOCH><BSTAR>-.71350507E-1</BSTAR><MEAN_MOTION_DOT>-.557238E-2</MEAN_MOTION_DOT><MEAN_MOTION_DDOT>0</MEAN_MOTION_DDOT></tleParameters></data></segment></body></omm>
<omm id="CCSDS_OMM_VERS" version="2.0">
<header><CREATION_DATE/><ORIGINATOR/></header><body><segment><metadata><OBJECT_NAME>KUIPER-00114</OBJECT_NAME><OBJECT_ID>2025-171V</OBJECT_ID><CENTER_NAME>EARTH</CENTER_NAME><REF_FRAME>TEME</REF_FRAME><TIME_SYSTEM>UTC</TIME_SYSTEM><MEAN_ELEMENT_THEORY>SGP4</MEAN_ELEMENT_THEORY></metadata><data><meanElements><EPOCH>2025-12-06T09:35:43.189152</EPOCH><MEAN_MOTION>14.79973453</MEAN_MOTION><ECCENTRICITY>.00066839</ECCENTRICITY><INCLINATION>51.8991</INCLINATION><RA_OF_ASC_NODE>228.1347</RA_OF_ASC_NODE><ARG_OF_PERICENTER>150.7567</ARG_OF_PERICENTER><MEAN_ANOMALY>209.3770</MEAN_ANOMALY></meanElements><tleParameters><EPHEMERIS_TYPE>0</EPHEMERIS_TYPE><CLASSIFICATION_TYPE>U</CLASSIFICATION_TYPE><NORAD_CAT_ID>65151</NORAD_CAT_ID><ELEMENT_SET_NO>999</ELEMENT_SET_NO><REV_AT_EPOCH>1882</REV_AT_EPOCH><BSTAR>.91069878E-3</BSTAR><MEAN_MOTION_DOT>.6736E-4</MEAN_MOTION_DOT><MEAN_MOTION_DDOT>0</MEAN_MOTION_DDOT></tleParameters></data></segment></body></omm>
<omm id="CCSDS_OMM_VERS" version="2.0">
<header><CREATION_DATE/><ORIGINATOR/></header><body><segment><metadata><OBJECT_NAME>KUIPER-00115</OBJECT_NAME><OBJECT_ID>2025-171W</OBJECT_ID><CENTER_NAME>EARTH</CENTER_NAME><REF_FRAME>TEME</REF_FRAME><TIME_SYSTEM>UTC</TIME_SYSTEM><MEAN_ELEMENT_THEORY>SGP4</MEAN_ELEMENT_THEORY></metadata><data><meanElements><EPOCH>2025-12-06T09:47:11.709888</EPOCH><MEAN_MOTION>14.79961701</MEAN_MOTION><ECCENTRICITY>.00102602</ECCENTRICITY><INCLINATION>51.9007</INCLINATION><RA_OF_ASC_NODE>220.5776</RA_OF_ASC_NODE><ARG_OF_PERICENTER>176.6490</ARG_OF_PERICENTER><MEAN_ANOMALY>183.4543</MEAN_ANOMALY></meanElements><tleParameters><EPHEMERIS_TYPE>0</EPHEMERIS_TYPE><CLASSIFICATION_TYPE>U</CLASSIFICATION_TYPE><NORAD_CAT_ID>65152</NORAD_CAT_ID><ELEMENT_SET_NO>999</ELEMENT_SET_NO><REV_AT_EPOCH>1893</REV_AT_EPOCH><BSTAR>.3724901E-3</BSTAR><MEAN_MOTION_DOT>.2621E-4</MEAN_MOTION_DOT><MEAN_MOTION_DDOT>0</MEAN_MOTION_DDOT></tleParameters></data></segment></body></omm>
<omm id="CCSDS_OMM_VERS" version="2.0">
<header><CREATION_DATE/><ORIGINATOR/></header><body><segment><metadata><OBJECT_NAME>KUIPER-00116</OBJECT_NAME><OBJECT_ID>2025-171X</OBJECT_ID><CENTER_NAME>EARTH</CENTER_NAME><REF_FRAME>TEME</REF_FRAME><TIME_SYSTEM>UTC</TIME_SYSTEM><MEAN_ELEMENT_THEORY>SGP4</MEAN_ELEMENT_THEORY></metadata><data><meanElements><EPOCH>2025-12-06T02:21:56.816064</EPOCH><MEAN_MOTION>14.79976952</MEAN_MOTION><ECCENTRICITY>.00106835</ECCENTRICITY><INCLINATION>51.8985</INCLINATION><RA_OF_ASC_NODE>226.9914</RA_OF_ASC_NODE><ARG_OF_PERICENTER>139.2599</ARG_OF_PERICENTER><MEAN_ANOMALY>220.9165</MEAN_ANOMALY></meanElements><tleParameters><EPHEMERIS_TYPE>0</EPHEMERIS_TYPE><CLASSIFICATION_TYPE>U</CLASSIFICATION_TYPE><NORAD_CAT_ID>65153</NORAD_CAT_ID><ELEMENT_SET_NO>999</ELEMENT_SET_NO><REV_AT_EPOCH>1881</REV_AT_EPOCH><BSTAR>.26142887E-2</BSTAR><MEAN_MOTION_DOT>.19804E-3</MEAN_MOTION_DOT><MEAN_MOTION_DDOT>0</MEAN_MOTION_DDOT></tleParameters></data></segment></body></omm>
<omm id="CCSDS_OMM_VERS" version="2.0">
<header><CREATION_DATE/><ORIGINATOR/></header><body><segment><metadata><OBJECT_NAME>KUIPER-00118</OBJECT_NAME><OBJECT_ID>2025-171Y</OBJECT_ID><CENTER_NAME>EARTH</CENTER_NAME><REF_FRAME>TEME</REF_FRAME><TIME_SYSTEM>UTC</TIME_SYSTEM><MEAN_ELEMENT_THEORY>SGP4</MEAN_ELEMENT_THEORY></metadata><data><meanElements><EPOCH>2025-12-06T10:24:12.749760</EPOCH><MEAN_MOTION>14.79890766</MEAN_MOTION><ECCENTRICITY>.00018328</ECCENTRICITY><INCLINATION>51.9001</INCLINATION><RA_OF_ASC_NODE>227.9639</RA_OF_ASC_NODE><ARG_OF_PERICENTER>126.8908</ARG_OF_PERICENTER><MEAN_ANOMALY>233.2223</MEAN_ANOMALY></meanElements><tleParameters><EPHEMERIS_TYPE>0</EPHEMERIS_TYPE><CLASSIFICATION_TYPE>U</CLASSIFICATION_TYPE><NORAD_CAT_ID>65154</NORAD_CAT_ID><ELEMENT_SET_NO>999</ELEMENT_SET_NO><REV_AT_EPOCH>1883</REV_AT_EPOCH><BSTAR>-.12840162E-2</BSTAR><MEAN_MOTION_DOT>-.9986E-4</MEAN_MOTION_DOT><MEAN_MOTION_DDOT>0</MEAN_MOTION_DDOT></tleParameters></data></segment></body></omm>
<omm id="CCSDS_OMM_VERS" version="2.0">
<header><CREATION_DATE/><ORIGINATOR/></header><body><segment><metadata><OBJECT_NAME>KUIPER-00119</OBJECT_NAME><OBJECT_ID>2025-171Z</OBJECT_ID><CENTER_NAME>EARTH</CENTER_NAME><REF_FRAME>TEME</REF_FRAME><TIME_SYSTEM>UTC</TIME_SYSTEM><MEAN_ELEMENT_THEORY>SGP4</MEAN_ELEMENT_THEORY></metadata><data><meanElements><EPOCH>2025-12-06T15:35:23.530560</EPOCH><MEAN_MOTION>14.80001811</MEAN_MOTION><ECCENTRICITY>.00085762</ECCENTRICITY><INCLINATION>51.8991</INCLINATION><RA_OF_ASC_NODE>214.5909</RA_OF_ASC_NODE><ARG_OF_PERICENTER>171.8587</ARG_OF_PERICENTER><MEAN_ANOMALY>188.2516</MEAN_ANOMALY></meanElements><tleParameters><EPHEMERIS_TYPE>0</EPHEMERIS_TYPE><CLASSIFICATION_TYPE>U</CLASSIFICATION_TYPE><NORAD_CAT_ID>65155</NORAD_CAT_ID><ELEMENT_SET_NO>999</ELEMENT_SET_NO><REV_AT_EPOCH>1903</REV_AT_EPOCH><BSTAR>.17175725E-2</BSTAR><MEAN_MOTION_DOT>.12925E-3</MEAN_MOTION_DOT><MEAN_MOTION_DDOT>0</MEAN_MOTION_DDOT></tleParameters></data></segment></body></omm>
<omm id="CCSDS_OMM_VERS" version="2.0">
<header><CREATION_DATE/><ORIGINATOR/></header><body><segment><metadata><OBJECT_NAME>KUIPER-00120</OBJECT_NAME><OBJECT_ID>2025-217A</OBJECT_ID><CENTER_NAME>EARTH</CENTER_NAME><REF_FRAME>TEME</REF_FRAME><TIME_SYSTEM>UTC</TIME_SYSTEM><MEAN_ELEMENT_THEORY>SGP4</MEAN_ELEMENT_THEORY></metadata><data><meanElements><EPOCH>2025-12-06T14:48:38.424096</EPOCH><MEAN_MOTION>14.92474802</MEAN_MOTION><ECCENTRICITY>.00166578</ECCENTRICITY><INCLINATION>51.8949</INCLINATION><RA_OF_ASC_NODE>103.9915</RA_OF_ASC_NODE><ARG_OF_PERICENTER>344.5311</ARG_OF_PERICENTER><MEAN_ANOMALY>15.5145</MEAN_ANOMALY></meanElements><tleParameters><EPHEMERIS_TYPE>0</EPHEMERIS_TYPE><CLASSIFICATION_TYPE>U</CLASSIFICATION_TYPE><NORAD_CAT_ID>65762</NORAD_CAT_ID><ELEMENT_SET_NO>999</ELEMENT_SET_NO><REV_AT_EPOCH>1096</REV_AT_EPOCH><BSTAR>.89819072E-3</BSTAR><MEAN_MOTION_DOT>.9093E-4</MEAN_MOTION_DOT><MEAN_MOTION_DDOT>0</MEAN_MOTION_DDOT></tleParameters></data></segment></body></omm>
<omm id="CCSDS_OMM_VERS" version="2.0">
<header><CREATION_DATE/><ORIGINATOR/></header><body><segment><metadata><OBJECT_NAME>KUIPER-00132</OBJECT_NAME><OBJECT_ID>2025-217B</OBJECT_ID><CENTER_NAME>EARTH</CENTER_NAME><REF_FRAME>TEME</REF_FRAME><TIME_SYSTEM>UTC</TIME_SYSTEM><MEAN_ELEMENT_THEORY>SGP4</MEAN_ELEMENT_THEORY></metadata><data><meanElements><EPOCH>2025-12-06T14:12:15.477120</EPOCH><MEAN_MOTION>15.37163083</MEAN_MOTION><ECCENTRICITY>.0006487</ECCENTRICITY><INCLINATION>51.8638</INCLINATION><RA_OF_ASC_NODE>94.4785</RA_OF_ASC_NODE><ARG_OF_PERICENTER>353.9800</ARG_OF_PERICENTER><MEAN_ANOMALY>6.1107</MEAN_ANOMALY></meanElements><tleParameters><EPHEMERIS_TYPE>0</EPHEMERIS_TYPE><CLASSIFICATION_TYPE>U</CLASSIFICATION_TYPE><NORAD_CAT_ID>65763</NORAD_CAT_ID><ELEMENT_SET_NO>999</ELEMENT_SET_NO><REV_AT_EPOCH>1109</REV_AT_EPOCH><BSTAR>.1651664E-2</BSTAR><MEAN_MOTION_DOT>.61174E-3</MEAN_MOTION_DOT><MEAN_MOTION_DDOT>0</MEAN_MOTION_DDOT></tleParameters></data></segment></body></omm>

</ndm>
